NORAD_CAT_ID,OBJECT_NAME,OBJECT_TYPE,EPOCH,MEAN_MOTION,ECCENTRICITY,INCLINATION,RA_OF_ASC_NODE,ARG_OF_PERICENTER,MEAN_ANOMALY,BSTAR,MEAN_MOTION_DOT,MEAN_MOTION_DDOT,TLE_LINE0,TLE_LINE1,TLE_LINE2,SEMIMAJOR_AXIS,PERIOD,APOGEE,PERIGEE,DECAYED
53598.0,STARLINK-4676,PAYLOAD,2022-09-10 22:00:00,15.7322674,0.0001498,53.2165,219.7615,58.96100000000001,46.5672,-0.00032271,-0.00045717,0.0,0 STARLINK-4676,1 53598U 22104L   22253.91667824 -.00045717  00000-0 -32271-3 0  9990,2 53598  53.2165 219.7615 0001498  58.9610  46.5672 15.73226740  1307,6727.819,91.532,350.69199999999995,348.676,0.0
53598.0,STARLINK-4676,PAYLOAD,2022-09-11 14:00:01,15.73205958,0.0001193999999999,53.2173,216.463,49.894,233.4354,-2.6264e-05,-4.305e-05,0.0,0 STARLINK-4676,1 53598U 22104L   22254.58334491 -.00004305  00000-0 -26264-4 0  9999,2 53598  53.2173 216.4630 0001194  49.8940 233.4354 15.73205958  2308,6727.878000000002,91.533,350.546,348.94,0.0
53598.0,STARLINK-4676,PAYLOAD,2022-09-11 20:00:01,15.73209252,0.0001368,53.2159,215.2248,62.2743,197.8728,0.00017587,0.00024143,0.0,0 STARLINK-4676,1 53598U 22104L   22254.83334491  .00024143  00000-0  17587-3 0  9994,2 53598  53.2159 215.2248 0001368  62.2743 197.8728 15.73209252  2340,6727.869000000002,91.533,350.654,348.81300000000016,0.0
53598.0,STARLINK-4676,PAYLOAD,2022-09-11 22:00:00,15.73240403,0.0001435,53.2162,214.8124,64.3017,308.0724,-0.00024121,-0.00034393,0.0,0 STARLINK-4676,1 53598U 22104L   22254.91667824 -.00034393  00000-0 -24121-3 0  9994,2 53598  53.2162 214.8124 0001435  64.3017 308.0724 15.73240403  1304,6727.78,91.531,350.61,348.68,0.0
53598.0,STARLINK-4676,PAYLOAD,2022-09-12 12:00:00,15.73195717,0.0001357,53.2164,211.9276,54.3408,23.7072,0.00031663,0.00044042,0.0,0 STARLINK-4676,1 53598U 22104L   22255.50001157  .00044042  00000-0  31663-3 0  9990,2 53598  53.2164 211.9276 0001357  54.3408  23.7072 15.73195717  2459,6727.906999999997,91.533,350.685,348.8590000000001,0.0
53598.0,STARLINK-4676,PAYLOAD,2022-09-12 22:00:00,15.73238314,0.000111,53.2167,209.8647,59.3859,219.8347,-0.00024657,-0.00035136,0.0,0 STARLINK-4676,1 53598U 22104L   22255.91667824 -.00035136  00000-0 -24657-3 0  9995,2 53598  53.2167 209.8647 0001110  59.3859 219.8347 15.73238314  1309,6727.786,91.531,350.398,348.904,0.0
53598.0,STARLINK-4676,PAYLOAD,2022-09-13 06:00:00,15.73285215,0.0001301,53.2173,208.2175,35.9538,332.2127,-0.0020256,-0.00276758,0.0,0 STARLINK-4676,1 53598U 22104L   22256.25001157 -.00276758  00000-0 -20256-2 0  9991,2 53598  53.2173 208.2175 0001301  35.9538 332.2127 15.73285215  2568,6727.651999999999,91.528,350.39300000000014,348.642,0.0
53598.0,STARLINK-4676,PAYLOAD,2022-09-13 14:00:01,15.73012817,0.0001327,53.2175,206.5658,39.9822,57.1326,-0.0033321999999999,-0.00441017,0.0,0 STARLINK-4676,1 53598U 22104L   22256.58334491 -.00441017  00000-0 -33322-2 0  9997,2 53598  53.2175 206.5658 0001327  39.9822  57.1326 15.73012817  1306,6728.429,91.544,351.18699999999984,349.401,0.0
53598.0,STARLINK-4676,PAYLOAD,2022-09-13 16:00:00,15.73012976,0.0001224,53.2175,206.1524,51.8317,157.4268,-0.0048056999999999,-0.00622341,0.0,0 STARLINK-4676,1 53598U 22104L   22256.66667824 -.00622341  00000-0 -48057-2 0  9997,2 53598  53.2175 206.1524 0001224  51.8317 157.4268 15.73012976  2634,6728.428000000001,91.544,351.117,349.47,0.0
53598.0,STARLINK-4676,PAYLOAD,2022-09-13 20:00:01,15.72977017,0.0001549,53.2174,205.3274,46.3798,27.1321,-0.0089641,-0.01114357,0.0,0 STARLINK-4676,1 53598U 22104L   22256.83334491 -.01114357  00000-0 -89641-2 0  9995,2 53598  53.2174 205.3274 0001549  46.3798  27.1321 15.72977017  2669,6728.531,91.546,351.43800000000016,349.35400000000016,0.0
53598.0,STARLINK-4676,PAYLOAD,2022-09-13 22:00:00,15.72770611,0.0001431999999999,53.2176,204.9157,50.6635,134.9825,-0.0089789,-0.011071,0.0,0 STARLINK-4676,1 53598U 22104L   22256.91667824 -.01107100  00000-0 -89789-2 0  9994,2 53598  53.2176 204.9157 0001432  50.6635 134.9825 15.72770611  1302,6729.12,91.558,351.9480000000001,350.021,0.0
53598.0,STARLINK-4676,PAYLOAD,2022-09-14 14:00:01,15.71166765,0.0001127999999999,53.2175,201.623,49.0845,311.4381,-0.0096467,-0.011101,0.0,0 STARLINK-4676,1 53598U 22104L   22257.58334491 -.01110100  00000-0 -96467-2 0  9994,2 53598  53.2175 201.6230 0001128  49.0845 311.4381 15.71166765  2773,6733.698,91.652,356.3230000000001,354.80400000000014,0.0
53598.0,STARLINK-4676,PAYLOAD,2022-09-14 22:00:00,15.70403672,0.0001119,53.2175,199.979,57.4876,29.004,-0.010434,-0.01176224,0.0,0 STARLINK-4676,1 53598U 22104L   22257.91667824 -.01176224  00000-0 -10434-1 0  9998,2 53598  53.2175 199.9790 0001119  57.4876  29.0040 15.70403672  1302,6735.879,91.696,358.49800000000016,356.991,0.0
53598.0,STARLINK-4676,PAYLOAD,2022-09-15 04:00:00,15.69762072,0.000123,53.2176,198.7494,55.6547,4.7188,-0.010232,-0.01109788,0.0,0 STARLINK-4676,1 53598U 22104L   22258.16667824 -.01109788  00000-0 -10232-1 0  9993,2 53598  53.2176 198.7494 0001230  55.6547   4.7188 15.69762072  2865,6737.715,91.734,360.408,358.751,0.0
53598.0,STARLINK-4676,PAYLOAD,2022-09-15 14:00:01,15.68758808,0.0001167999999999,53.2175,196.6979,62.019,193.5834,-0.010672,-0.01109993,0.0,0 STARLINK-4676,1 53598U 22104L   22258.58334491 -.01109993  00000-0 -10672-1 0  9996,2 53598  53.2175 196.6979 0001168  62.0190 193.5834 15.68758808  1309,6740.587,91.792,363.239,361.665,0.0
53598.0,STARLINK-4676,PAYLOAD,2022-09-15 22:00:00,15.67955338,0.0001135,53.2175,195.0602,58.2584,280.4411,-0.011017,-0.01108544,0.0,0 STARLINK-4676,1 53598U 22104L   22258.91667824 -.01108544  00000-0 -11017-1 0  9997,2 53598  53.2175 195.0602 0001135  58.2584 280.4411 15.67955338  1306,6742.89,91.839,365.52,363.989,0.0
53598.0,STARLINK-4676,PAYLOAD,2022-09-16 00:00:00,15.67800005,0.0001069,53.2171,194.6517,84.4317,4.8693,-0.011759,-0.01188117,0.0,0 STARLINK-4676,1 53598U 22104L   22259.00001157 -.01188117  00000-0 -11759-1 0  9996,2 53598  53.2171 194.6517 0001069  84.4317   4.8693 15.67800005  3002,6743.335,91.848,365.921,364.479,0.0
53598.0,STARLINK-4676,PAYLOAD,2022-09-16 14:00:01,15.66347496,0.0001259,53.2174,191.791,60.6979,81.30199999999998,-0.01172,-0.01122575,0.0,0 STARLINK-4676,1 53598U 22104L   22259.58334491 -.01122575  00000-0 -11720-1 0  9993,2 53598  53.2174 191.7910 0001259  60.6979  81.3020 15.66347496  1305,6747.503000000002,91.934,370.218,368.519,0.0
53598.0,STARLINK-4676,PAYLOAD,2022-09-16 22:00:00,15.65590811,0.0001235,53.2174,190.1589,85.1032,137.0737,-0.0127689999999999,-0.01179984,0.0,0 STARLINK-4676,1 53598U 22104L   22259.91667824 -.01179984  00000-0 -12769-1 0  9999,2 53598  53.2174 190.1589 0001235  85.1032 137.0737 15.65590811  1300,6749.677,91.978,372.376,370.709,0.0
53598.0,STARLINK-4676,PAYLOAD,2022-09-17 06:00:00,15.64767208,0.0001149999999999,53.2173,188.5311,75.4733,225.9517,-0.012878,-0.01153959,0.0,0 STARLINK-4676,1 53598U 22104L   22260.25001157 -.01153959  00000-0 -12878-1 0  9994,2 53598  53.2173 188.5311 0001150  75.4733 225.9517 15.64767208  3196,6752.045,92.026,374.687,373.134,0.0
53598.0,STARLINK-4676,PAYLOAD,2022-09-17 14:00:01,15.63937979,0.0001004999999999,53.2175,186.9006,69.8919,309.8221,-0.012891,-0.01120805,0.0,0 STARLINK-4676,1 53598U 22104L   22260.58334491 -.01120805  00000-0 -12891-1 0  9999,2 53598  53.2175 186.9006 0001005  69.8919 309.8221 15.63937979  1301,6754.432,92.075,376.976,375.61800000000005,0.0
53598.0,STARLINK-4676,PAYLOAD,2022-09-17 22:00:00,15.63011539,0.0001133,53.2172,185.275,82.3127,14.7755,-0.0113,-0.00947599,0.0,0 STARLINK-4676,1 53598U 22104L   22260.91667824 -.00947599  00000-0 -11300-1 0  9995,2 53598  53.2172 185.2750 0001133  82.3127  14.7755 15.63011539  1308,6757.101,92.13,379.731,378.2,0.0
53598.0,STARLINK-4676,PAYLOAD,2022-09-18 14:00:01,15.61528732,0.0001174,53.2174,182.0284,73.5468,175.2624,-0.014146,-0.01118795,0.0,0 STARLINK-4676,1 53598U 22104L   22261.58335648 -.01118795  00000-0 -14146-1 0  9995,2 53598  53.2174 182.0284 0001174  73.5468 175.2624 15.61528732  3409,6761.378000000002,92.217,384.036,382.449,0.0
53598.0,STARLINK-4676,PAYLOAD,2022-09-18 22:00:00,15.6074804,9.42e-05,53.2172,180.4089,86.2404,236.9033,-0.014941,-0.01143637,0.0,0 STARLINK-4676,1 53598U 22104L   22261.91667824 -.01143637  00000-0 -14941-1 0  9992,2 53598  53.2172 180.4089 0000942  86.2404 236.9033 15.60748040  1306,6763.632,92.263,386.134,384.86,0.0
53598.0,STARLINK-4676,PAYLOAD,2022-09-19 06:00:02,15.59922169,9.87e-05,53.2172,178.7919,84.4485,312.2226,-0.015018,-0.01116252,0.0,0 STARLINK-4676,1 53598U 22104L   22262.25002315 -.01116252  00000-0 -15018-1 0  9997,2 53598  53.2172 178.7919 0000987  84.4485 312.2226 15.59922169  3506,6766.019,92.312,388.552,387.216,0.0
53598.0,STARLINK-4676,PAYLOAD,2022-09-19 14:00:01,15.59118827,0.0001192,53.2175,177.1737,64.0601,45.0311,-0.0154849999999999,-0.01116102,0.0,0 STARLINK-4676,1 53598U 22104L   22262.58334491 -.01116102  00000-0 -15485-1 0  9998,2 53598  53.2175 177.1737 0001192  64.0601  45.0311 15.59118827  1303,6768.343000000003,92.36,391.015,389.401,0.0
53598.0,STARLINK-4676,PAYLOAD,2022-09-19 22:00:00,15.58335489,0.0001261,53.2174,175.5602,80.5735,100.0261,-0.016346,-0.01140886,0.0,0 STARLINK-4676,1 53598U 22104L   22262.91667824 -.01140886  00000-0 -16346-1 0  9997,2 53598  53.2174 175.5602 0001261  80.5735 100.0261 15.58335489  1303,6770.611,92.406,393.33,391.622,0.0
53598.0,STARLINK-4676,PAYLOAD,2022-09-20 14:00:01,15.56723196,0.0001034,53.2171,172.3371,64.2943,256.4515,-0.017196,-0.01130308,0.0,0 STARLINK-4676,1 53598U 22104L   22263.58334491 -.01130308  00000-0 -17196-1 0  9994,2 53598  53.2171 172.3371 0001034  64.2943 256.4515 15.56723196  1308,6775.285,92.502,397.851,396.45,0.0
53598.0,STARLINK-4676,PAYLOAD,2022-09-20 22:00:01,15.55909765,0.0001186,53.2175,170.7288,57.2468,332.1958,-0.017533,-0.01119121,0.0,0 STARLINK-4676,1 53598U 22104L   22263.91668981 -.01119121  00000-0 -17533-1 0  9990,2 53598  53.2175 170.7288 0001186  57.2468 332.1958 15.55909765  3765,6777.646,92.55,400.315,398.708,0.0
